CTC2_L_00053016-03
1 10062U 22568VG  26075.70040509  .00000000  00000+0  00000-0 0  9996
2 10062  75.0000 180.0000 0000000   0.0000   0.0000 15.48880433    17
CTC2_L_00053016-04
1 10063U 25679II  26075.70040509  .00000000  00000+0  00000-0 0  9993
2 10063  75.0000 180.0000 0000000   0.0000  90.0000 15.48880433    17
CTC2_L_00053017-01
1 10064U 22760BI  26075.70040509  .00000000  00000+0  00000-0 0  9992
2 10064  75.0000 192.0000 0000000   0.0000 192.0000 15.48880433    14
CTC2_L_00053017-02
1 10065U 23554ZP  26075.70040509  .00000000  00000+0  00000-0 0  9995
2 10065  75.0000 192.0000 0000000   0.0000 282.0000 15.48880433    15
CTC2_L_00053017-03
1 10066U 24234LT  26075.70040509  .00000000  00000+0  00000-0 0  9992
2 10066  75.0000 192.0000 0000000   0.0000  12.0000 15.48880433    17
CTC2_L_00053017-04
1 10067U 23375JU  26075.70040509  .00000000  00000+0  00000-0 0  9998
2 10067  75.0000 192.0000 0000000   0.0000 102.0000 15.48880433    18
CTC2_L_00053018-01
1 10068U 22102WA  26075.70040509  .00000000  00000+0  00000-0 0  9996
2 10068  75.0000 204.0000 0000000   0.0000 204.0000 15.48880433    16
CTC2_L_00053018-02
1 10069U 26753ZW  26075.70040509  .00000000  00000+0  00000-0 0  9993
2 10069  75.0000 204.0000 0000000   0.0000 294.0000 15.48880433    16
CTC2_L_00053018-03
1 10070U 26750IV  26075.70040509  .00000000  00000+0  00000-0 0  9992
2 10070  75.0000 204.0000 0000000   0.0000  24.0000 15.48880433    19
CTC2_L_00053018-04
1 10071U 24690GW  26075.70040509  .00000000  00000+0  00000-0 0  9994
2 10071  75.0000 204.0000 0000000   0.0000 114.0000 15.48880433    10
CTC2_L_00053019-01
1 10072U 22899AR  26075.70040509  .00000000  00000+0  00000-0 0  9994
2 10072  75.0000 216.0000 0000000   0.0000 216.0000 15.48880433    17
CTC2_L_00053019-02
1 10073U 26912X   26075.70040509  .00000000  00000+0  00000-0 0  9995
2 10073  75.0000 216.0000 0000000   0.0000 306.0000 15.48880433    18
CTC2_L_00053019-03
1 10074U 22867YO  26075.70040509  .00000000  00000+0  00000-0 0  9991
2 10074  75.0000 216.0000 0000000   0.0000  36.0000 15.48880433    19
CTC2_L_00053019-04
1 10075U 26702VX  26075.70040509  .00000000  00000+0  00000-0 0  9994
2 10075  75.0000 216.0000 0000000   0.0000 126.0000 15.48880433    10
CTC2_L_00053020-01
1 10076U 26795JQ  26075.70040509  .00000000  00000+0  00000-0 0  9997
2 10076  75.0000 228.0000 0000000   0.0000 228.0000 15.48880433    17
CTC2_L_00053020-02
1 10077U 26529FT  26075.70040509  .00000000  00000+0  00000-0 0  9993
2 10077  75.0000 228.0000 0000000   0.0000 318.0000 15.48880433    18
CTC2_L_00053020-03
1 10078U 24623SZ  26075.70040509  .00000000  00000+0  00000-0 0  9997
2 10078  75.0000 228.0000 0000000   0.0000  48.0000 15.48880433    19
CTC2_L_00053020-04
1 10079U 24185QD  26075.70040509  .00000000  00000+0  00000-0 0  9991
2 10079  75.0000 228.0000 0000000   0.0000 138.0000 15.48880433    10
CTC2_L_00053021-01
1 10080U 22125WE  26075.70040509  .00000000  00000+0  00000-0 0  9995
2 10080  75.0000 240.0000 0000000   0.0000 240.0000 15.48880433    10
CTC2_L_00053021-02
1 10081U 24076XW  26075.70040509  .00000000  00000+0  00000-0 0  9993
2 10081  75.0000 240.0000 0000000   0.0000 330.0000 15.48880433    11
CTC2_L_00053021-03
1 10082U 25853FV  26075.70040509  .00000000  00000+0  00000-0 0  9998
2 10082  75.0000 240.0000 0000000   0.0000  60.0000 15.48880433    12
CTC2_L_00053021-04
1 10083U 26945TI  26075.70040509  .00000000  00000+0  00000-0 0  9992
2 10083  75.0000 240.0000 0000000   0.0000 150.0000 15.48880433    13
CTC2_L_00053022-01
1 10084U 23756IE  26075.70040509  .00000000  00000+0  00000-0 0  9990
2 10084  75.0000 252.0000 0000000   0.0000 252.0000 15.48880433    10
CTC2_L_00053022-02
1 10085U 25893EH  26075.70040509  .00000000  00000+0  00000-0 0  9995
2 10085  75.0000 252.0000 0000000   0.0000 342.0000 15.48880433    11
CTC2_L_00053022-03
1 10086U 23034HX  26075.70040509  .00000000  00000+0  00000-0 0  9991
2 10086  75.0000 252.0000 0000000   0.0000  72.0000 15.48880433    12
CTC2_L_00053022-04
1 10087U 24385UH  26075.70040509  .00000000  00000+0  00000-0 0  9992
2 10087  75.0000 252.0000 0000000   0.0000 162.0000 15.48880433    13
CTC2_L_00053023-01
1 10088U 23331NE  26075.70040509  .00000000  00000+0  00000-0 0  9993
2 10088  75.0000 264.0000 0000000   0.0000 264.0000 15.48880433    10
CTC2_L_00053023-02
1 10089U 24491KR  26075.70040509  .00000000  00000+0  00000-0 0  9992
2 10089  75.0000 264.0000 0000000   0.0000 354.0000 15.48880433    11
CTC2_L_00053023-03
1 10090U 23944JT  26075.70040509  .00000000  00000+0  00000-0 0  9996
2 10090  75.0000 264.0000 0000000   0.0000  84.0000 15.48880433    13
CTC2_L_00053023-04
1 10091U 24143WC  26075.70040509  .00000000  00000+0  00000-0 0  9999
2 10091  75.0000 264.0000 0000000   0.0000 174.0000 15.48880433    14
CTC2_L_00053024-01
1 10092U 24917DB  26075.70040509  .00000000  00000+0  00000-0 0  9999
2 10092  75.0000 276.0000 0000000   0.0000 276.0000 15.48880433    11
CTC2_L_00053024-02
1 10093U 22711EG  26075.70040509  .00000000  00000+0  00000-0 0  9990
2 10093  75.0000 276.0000 0000000   0.0000   6.0000 15.48880433    13
CTC2_L_00053024-03
1 10094U 22164HF  26075.70040509  .00000000  00000+0  00000-0 0  9993
2 10094  75.0000 276.0000 0000000   0.0000  96.0000 15.48880433    13
CTC2_L_00053024-04
1 10095U 24603OI  26075.70040509  .00000000  00000+0  00000-0 0  9994
2 10095  75.0000 276.0000 0000000   0.0000 186.0000 15.48880433    14
CTC2_L_00053025-01
1 10096U 26929NZ  26075.70040509  .00000000  00000+0  00000-0 0  9998
2 10096  75.0000 288.0000 0000000   0.0000 288.0000 15.48880433    11
CTC2_L_00053025-02
1 10097U 26135WX  26075.70040509  .00000000  00000+0  00000-0 0  9998
2 10097  75.0000 288.0000 0000000   0.0000  18.0000 15.48880433    13
CTC2_L_00053025-03
1 10098U 25870CW  26075.70040509  .00000000  00000+0  00000-0 0  9994
2 10098  75.0000 288.0000 0000000   0.0000 108.0000 15.48880433    14
CTC2_L_00053025-04
1 10099U 22205AX  26075.70040509  .00000000  00000+0  00000-0 0  9994
2 10099  75.0000 288.0000 0000000   0.0000 198.0000 15.48880433    14
CTC2_L_00053026-01
1 10100U 25088GP  26075.70040509  .00000000  00000+0  00000-0 0  9999
2 10100  75.0000 300.0000 0000000   0.0000 300.0000 15.48880433    17
CTC2_L_00053026-02
1 10101U 25784LD  26075.70040509  .00000000  00000+0  00000-0 0  9993
2 10101  75.0000 300.0000 0000000   0.0000  30.0000 15.48880433    18
CTC2_L_00053026-03
1 10102U 23702PL  26075.70040509  .00000000  00000+0  00000-0 0  9992
2 10102  75.0000 300.0000 0000000   0.0000 120.0000 15.48880433    19
CTC2_L_00053026-04
1 10103U 25462UK  26075.70040509  .00000000  00000+0  00000-0 0  9998
2 10103  75.0000 300.0000 0000000   0.0000 210.0000 15.48880433    10
CTC2_L_00053027-01
1 10104U 23091UU  26075.70040509  .00000000  00000+0  00000-0 0  9995
2 10104  75.0000 312.0000 0000000   0.0000 312.0000 15.48880433    17
CTC2_L_00053027-02
1 10105U 25318SX  26075.70040509  .00000000  00000+0  00000-0 0  9990
2 10105  75.0000 312.0000 0000000   0.0000  42.0000 15.48880433    18
CTC2_L_00053027-03
1 10106U 24822DP  26075.70040509  .00000000  00000+0  00000-0 0  9990
2 10106  75.0000 312.0000 0000000   0.0000 132.0000 15.48880433    19
CTC2_L_00053027-04
1 10107U 23123OJ  26075.70040509  .00000000  00000+0  00000-0 0  9994
2 10107  75.0000 312.0000 0000000   0.0000 222.0000 15.48880433    10
CTC2_L_00053028-01
1 10108U 26044LR  26075.70040509  .00000000  00000+0  00000-0 0  9990
2 10108  75.0000 324.0000 0000000   0.0000 324.0000 15.48880433    17
CTC2_L_00053028-02
1 10109U 25796JC  26075.70040509  .00000000  00000+0  00000-0 0  9994
2 10109  75.0000 324.0000 0000000   0.0000  54.0000 15.48880433    18
CTC2_L_00053028-03
1 10110U 25356NB  26075.70040509  .00000000  00000+0  00000-0 0  9998
2 10110  75.0000 324.0000 0000000   0.0000 144.0000 15.48880433    10
CTC2_L_00053028-04
1 10111U 26833TU  26075.70040509  .00000000  00000+0  00000-0 0  9990
2 10111  75.0000 324.0000 0000000   0.0000 234.0000 15.48880433    11
CTC2_L_00053029-01
1 10112U 26604XY  26075.70040509  .00000000  00000+0  00000-0 0  9997
2 10112  75.0000 336.0000 0000000   0.0000 336.0000 15.48880433    18
CTC2_L_00053029-02
1 10113U 25805KE  26075.70040509  .00000000  00000+0  00000-0 0  9990
2 10113  75.0000 336.0000 0000000   0.0000  66.0000 15.48880433    19
CTC2_L_00053029-03
1 10114U 25818CH  26075.70040509  .00000000  00000+0  00000-0 0  9995
2 10114  75.0000 336.0000 0000000   0.0000 156.0000 15.48880433    10
CTC2_L_00053029-04
1 10115U 25800AK  26075.70040509  .00000000  00000+0  00000-0 0  9997
2 10115  75.0000 336.0000 0000000   0.0000 246.0000 15.48880433    11
CTC2_L_00053030-01
1 10116U 23506YF  26075.70040509  .00000000  00000+0  00000-0 0  9999
2 10116  75.0000 348.0000 0000000   0.0000 348.0000 15.48880433    18
CTC2_L_00053030-02
1 10117U 23855K   26075.70040509  .00000000  00000+0  00000-0 0  9997
2 10117  75.0000 348.0000 0000000   0.0000  78.0000 15.48880433    19
CTC2_L_00053030-03
1 10118U 24199MA  26075.70040509  .00000000  00000+0  00000-0 0  9990
2 10118  75.0000 348.0000 0000000   0.0000 168.0000 15.48880433    10
CTC2_L_00053030-04
1 10119U 25391GX  26075.70040509  .00000000  00000+0  00000-0 0  9996
2 10119  75.0000 348.0000 0000000   0.0000 258.0000 15.48880433    11
